STARLINK-3321           
1 50803U 22001A   22030.58334491  .00072084  00000+0  51406-3 0  9994
2 50803  53.2149  81.8496 0002060  38.2120 148.8741 15.73178955  5034
STARLINK-3323           
1 50804U 22001B   22030.58334491 -.00008442  00000+0 -55807-4 0  9994
2 50804  53.2155  81.8489 0002194  29.5830 158.1869 15.73188145  3735
STARLINK-3333           
1 50805U 22001C   22030.58334491 -.00019117  00000+0 -13202-3 0  9998
2 50805  53.2156  81.8481 0001768  32.8791 155.4990 15.73211370  5035
STARLINK-3335           
1 50806U 22001D   22030.58334491 -.00023052  00000+0 -16028-3 0  9991
2 50806  53.2143  81.8437 0001921  32.1547 156.8905 15.73197360  3734
STARLINK-3353           
1 50807U 22001E   22030.58334491 -.00018937  00000+0 -13081-3 0  9994
2 50807  53.2152  81.8404 0001597  33.3999 158.1843 15.73198864  3738
STARLINK-3355           
1 50808U 22001F   22030.58334491  .00061097  00000+0  43698-3 0  9995
2 50808  53.2156  81.8439 0002080  16.7949 173.4787 15.73177145  3735
STARLINK-3232           
1 50809U 22001G   22030.58334491  .00017268  00000+0  12737-3 0  9997
2 50809  53.2136  81.8442 0001698  33.3285 156.3500 15.73168702  3732
STARLINK-3348           
1 50810U 22001H   22030.58334491  .00001090  00000+0  12192-4 0  9991
2 50810  53.2161  81.8401 0001814  39.1538 151.8083 15.73186920  3730
STARLINK-3347           
1 50811U 22001J   22030.58334491 -.00013335  00000+0 -90765-4 0  9991
2 50811  53.2152  81.8398 0001823  32.3001 159.9228 15.73192327  3734
STARLINK-3338           
1 50812U 22001K   22030.58334491  .00000700  00000+0  94128-5 0  9990
2 50812  53.2154  81.8370 0002128  24.9966 168.4888 15.73193603  3738
STARLINK-3349           
1 50813U 22001L   22030.58334491 -.00014838  00000+0 -10146-3 0  9996
2 50813  53.2150  81.8376 0001720  33.0238 159.8397 15.73204040  3738
STARLINK-3324           
1 50814U 22001M   22030.58334491  .00017061  00000+0  12587-3 0  9997
2 50814  53.2146  81.8296 0001605  29.5882 166.4844 15.73173997  5034
STARLINK-3234           
1 50815U 22001N   22030.48558171  .00034646  00000+0  25003-3 0  9995
2 50815  53.2134  82.3172 0001920  38.7603 321.3554 15.73220275  5014
STARLINK-3342           
1 50816U 22001P   22030.48467646  .00032578  00000+0  23530-3 0  9997
2 50816  53.2152  82.3118 0001553  42.7427 317.3713 15.73233467  3754
STARLINK-3341           
1 50817U 22001Q   22030.54899571  .00006777  00000+0  52626-4 0  9992
2 50817  53.2149  82.0006 0001803  48.7034 311.4141 15.73220617  3766
STARLINK-3336           
1 50818U 22001R   22030.42138782  .00021938  00000+0  16015-3 0  9997
2 50818  53.2155  82.6251 0002476  49.1032 311.0202 15.73223202  3747
STARLINK-3327           
1 50819U 22001S   22029.84975691 -.00085293  00000+0 -60865-3 0  9998
2 50819  53.2138  85.4548 0002802  67.9301 292.2017 15.73224989  4848
STARLINK-3339           
1 50820U 22001T   22030.54809483  .00012708  00000+0  94696-4 0  9993
2 50820  53.2146  81.9949 0002067  32.8469 327.2679 15.73232953  3767
STARLINK-3346           
1 50821U 22001U   22030.54764525  .00011577  00000+0  86698-4 0  9997
2 50821  53.2153  81.9922 0001842  37.3369 322.7778 15.73225511  3768
STARLINK-3343           
1 50822U 22001V   22030.42118603 -.00524035  00000+0 -41787-2 0  9993
2 50822  53.2153  82.6221 0007190  40.8984 319.2574 15.71925338  3748
STARLINK-3334           
1 50823U 22001W   22030.48535434  .00003549  00000+0  29672-4 0  9996
2 50823  53.2145  82.3136 0001692  21.0369 339.0720 15.73218155  3759
STARLINK-3340           
1 50824U 22001X   22030.42070257  .00004547  00000+0  36747-4 0  9998
2 50824  53.2161  82.6196 0001779  34.9103 325.2034 15.73235959  3747
STARLINK-3332           
1 50825U 22001Y   22030.54793806 -.00023447  00000+0 -16310-3 0  9999
2 50825  53.2147  81.9938 0001202 358.0186   2.0829 15.73201767  3764
STARLINK-3337           
1 50826U 22001Z   22030.54730163  .00016781  00000+0  12351-3 0  9999
2 50826  53.2142  81.9882 0002019  26.6077 333.5046 15.73244075  3764
STARLINK-3329           
1 50827U 22001AA  22030.54831633  .00012375  00000+0  92349-4 0  9995
2 50827  53.2148  81.9959 0002030  41.3532 318.7642 15.73228354  3768
STARLINK-3290           
1 50828U 22001AB  22030.54707513  .00042217  00000+0  30286-3 0  9994
2 50828  53.2160  81.9867 0001530  38.4226 321.6903 15.73265148  3767
STARLINK-3294           
1 50829U 22001AC  22030.48501988  .00026118  00000+0  18953-3 0  9995
2 50829  53.2144  82.3114 0002258  41.4631 318.6560 15.73248770  3758
STARLINK-3278           
1 50830U 22001AD  22030.54697046  .00019441  00000+0  14242-3 0  9993
2 50830  53.2159  81.9867 0002879  43.3809 316.7438 15.73230300  3767
STARLINK-3299           
1 50831U 22001AE  22030.54718976  .00034652  00000+0  24978-3 0  9998
2 50831  53.2143  81.9879 0002195  36.4604 323.6565 15.73247379  3763
STARLINK-3328           
1 50832U 22001AF  22030.54685246  .00034764  00000+0  25057-3 0  9995
2 50832  53.2157  81.9851 0001978  25.9335 334.1784 15.73247692  3769
STARLINK-3316           
1 50833U 22001AG  22030.54741974  .00018060  00000+0  13269-3 0  9990
2 50833  53.2150  81.9912 0001867  33.1297 326.9840 15.73222715  3767
STARLINK-3331           
1 50834U 22001AH  22030.54651133  .00029688  00000+0  21477-3 0  9996
2 50834  53.2139  81.9819 0002028  24.0404 336.0710 15.73245637  3766
STARLINK-3310           
1 50835U 22001AJ  22030.54628598  .00008434  00000+0  64328-4 0  9995
2 50835  53.2154  81.9809 0002145  32.3966 327.7186 15.73246532  3767
STARLINK-3330           
1 50836U 22001AK  22030.48310264  .00025591  00000+0  18588-3 0  9996
2 50836  53.2141  82.2981 0001889  30.0782 330.0346 15.73239881  3757
STARLINK-3318           
1 50837U 22001AL  22030.54752464  .00035933  00000+0  25882-3 0  9992
2 50837  53.2156  81.9901 0001607  42.5849 317.5295 15.73247210  3761
STARLINK-3322           
1 50838U 22001AM  22030.54561267  .00007627  00000+0  58640-4 0  9990
2 50838  53.2158  81.9752 0001710  34.3038 325.8092 15.73228758  3765
STARLINK-3320           
1 50839U 22001AN  22030.41889667  .00024763  00000+0  18000-3 0  9999
2 50839  53.2160  82.6080 0001975  39.6327 320.4838 15.73243406  3736
STARLINK-3295           
1 50840U 22001AP  22030.41878783  .00019751  00000+0  14454-3 0  9998
2 50840  53.2145  82.6075 0001885  45.0456 315.0717 15.73244674  3733
STARLINK-3300           
1 50841U 22001AQ  22030.54618261  .00033578  00000+0  24223-3 0  9994
2 50841  53.2138  81.9800 0001973  31.1254 328.9883 15.73245166  3761
STARLINK-3302           
1 50842U 22001AR  22030.41867618  .00004754  00000+0  38238-4 0  9999
2 50842  53.2153  82.6042 0001752  40.0216 320.0933 15.73223987  3730
STARLINK-3325           
1 50843U 22001AS  22030.54640305  .00012594  00000+0  93922-4 0  9998
2 50843  53.2157  81.9816 0002127  28.6600 331.4537 15.73224679  3760
STARLINK-3326           
1 50844U 22001AT  22030.10068800  .00020729  00000+0  15148-3 0  9997
2 50844  53.2161  84.1749 0001089 349.1251  10.9745 15.73241061  3691
STARLINK-3230           
1 50845U 22001AU  22030.54673608  .00037543  00000+0  27008-3 0  9994
2 50845  53.2138  81.9835 0002138  22.7520 337.3595 15.73254323  3768
STARLINK-3308           
1 50846U 22001AV  22030.54527265  .00006968  00000+0  53976-4 0  9993
2 50846  53.2152  81.9727 0002018  33.8457 326.2692 15.73222866  3766
STARLINK-3319           
1 50847U 22001AW  22030.41901051  .00000484  00000+0  78663-5 0  9997
2 50847  53.2163  82.6091 0001797  29.1409 330.9711 15.73227186  3741
STARLINK-3315           
1 50848U 22001AX  22030.54515611  .00034660  00000+0  24968-3 0  9995
2 50848  53.2140  81.9729 0001902  31.5318 328.5816 15.73262812  3767
STARLINK-3311           
1 50849U 22001AY  22030.41844413  .00014692  00000+0  10873-3 0  9990
2 50849  53.2158  82.6042 0001820  45.3586 314.7582 15.73240968  3745
STARLINK-3312           
1 50850U 22001AZ  22030.60842143  .00020653  00000+0  15214-3 0  9999
2 50850  53.2155  81.6563 0002122  18.0141 342.0954 15.73054620  4310
STARLINK-3314           
1 50851U 22001BA  22030.54504978  .00048314  00000+0  34569-3 0  9992
2 50851  53.2159  81.9725 0001731  39.5267 320.5879 15.73266467  3769
2022-002A               
1 50984U 22002A   22030.40836600  .00009252  00000+0  51365-3 0  9996
2 50984  97.5041  99.8353 0015102 168.7357 191.4215 15.13858517  2545
2022-002B               
1 50985U 22002B   22030.60728632  .00009892  00000+0  54964-3 0  9992
2 50985  97.5085 100.0414 0015392 170.7946 189.3571 15.13804669  2578
2022-002C               
1 50986U 22002C   22030.48859324  .00009018  00000+0  51978-3 0  9994
2 50986  97.5056  99.8842 0010861 174.3669 185.7686 15.12568560  2556
FOSSASAT-2E4            
1 50987U 22002D   22030.60743470  .00012749  00000+0  70685-3 0  9994
2 50987  97.5083 100.0408 0015216 171.1368 189.0135 15.13818489  2577
2022-002E               
1 50988U 22002E   22030.55517425  .00004195  00000+0  24458-3 0  9991
2 50988  97.5007  99.9363 0010295 171.5618 188.5788 15.12470619  2569
2022-002F               
1 50989U 22002F   22030.55571958  .00004193  00000+0  24482-3 0  9998
2 50989  97.5022  99.9377 0010393 170.4746 189.6684 15.12421743  2562
2022-002G               
1 50990U 22002G   22030.40900595  .00008314  00000+0  46282-3 0  9998
2 50990  97.5048  99.8353 0015125 167.6515 192.5090 15.13794668  2547
FOSSASAT-2E6            
1 50991U 22002H   22030.47686356  .00009403  00000+0  52520-3 0  9994
2 50991  97.5098  99.9121 0014879 173.1534 186.9903 15.13640832  2559
FLOCK 4X-8              
1 50992U 22002J   22030.55119672  .00002728  00000+0  15883-3 0  9990
2 50992  97.5067  99.9619 0011963 180.3432 179.7792 15.12807736  2560
ION SCV-004             
1 50993U 22002K   22030.55497176  .00008669  00000+0  50158-3 0  9993
2 50993  97.5056  99.9491 0011132 173.3059 186.8323 15.12438302  2560
FLOCK 4X-44             
